[ {"name": "STARLINK-5940", "line1": "1 56012U 23042AC  26147.89840638  .00000007  00000+0  97602-5 0  9996", "line2": "2 56012  43.0024 317.5460 0001131 256.6726 103.3999 15.27577184175155"}, {"name": "STARLINK-5941", "line1": "1 56013U 23042AD  26147.84793488 -.00000056  00000+0  75195-5 0  9990", "line2": "2 56013  43.0049 332.7237 0002008 270.5127  89.5495 15.27573875174976"}, {"name": "STARLINK-5942", "line1": "1 56014U 23042AE  26148.50873082 -.00007138  00000+0 -24990-3 0  9998", "line2": "2 56014  43.0022 314.3834 0001480 281.4029  78.6657 15.27604749175247"}, {"name": "STARLINK-5939", "line1": "1 56015U 23042AF  26148.49459258  .00000329  00000+0  21495-4 0  9993", "line2": "2 56015  43.0029 314.2801 0001431 268.6276  91.4411 15.27574309175244"}, {"name": "STARLINK-5943", "line1": "1 56016U 23042AG  26148.47289425  .00000606  00000+0  31560-4 0  9991", "line2": "2 56016  43.0028 314.9606 0001539 264.5216  95.5460 15.27581964175235"}, {"name": "STARLINK-5934", "line1": "1 56017U 23042AH  26148.52286138  .00000962  00000+0  44490-4 0  9997", "line2": "2 56017  43.0065 314.4844 0002008 269.1543  90.9079 15.27574601175248"}, {"name": "STARLINK-5945", "line1": "1 56018U 23042AJ  26148.53442250  .00001106  00000+0  49704-4 0  9992", "line2": "2 56018  43.0026 314.5640 0001865 270.2774  89.7864 15.27579040175240"}, {"name": "STARLINK-5949", "line1": "1 56019U 23042AK  26148.18952432 -.00001139  00000+0 -31895-4 0  9992", "line2": "2 56019  43.0052 316.2844 0001813 284.4784  75.5867 15.27562981175192"}, {"name": "STARLINK-5912", "line1": "1 56020U 23042AL  26147.74593005 -.00001561  00000+0 -47214-4 0  9993", "line2": "2 56020  43.0024 318.9680 0001960 258.1051 101.9580 15.27577547175121"}, {"name": "STARLINK-5907", "line1": "1 56021U 23042AM  26148.52671785  .00000822  00000+0  39429-4 0  9999", "line2": "2 56021  43.0061 314.5111 0002841 267.0398  93.0128 15.27573556175244"}, {"name": "STARLINK-5783", "line1": "1 56022U 23042AN  26148.48559758  .00000019  00000+0  10214-4 0  9999", "line2": "2 56022  43.0038 314.2072 0001367 269.0197  91.0498 15.27576037175248"}, {"name": "STARLINK-5771", "line1": "1 56023U 23042AP  26148.47931977  .00000749  00000+0  36760-4 0  9990", "line2": "2 56023  43.0034 315.0079 0001289 271.2098  88.8606 15.27573999175237"}, {"name": "STARLINK-5772", "line1": "1 56024U 23042AQ  26148.43177579 -.00000160  00000+0  37043-5 0  9991", "line2": "2 56024  43.0046 314.6547 0001360 257.9276 102.1424 15.27575536175232"}, {"name": "STARLINK-5766", "line1": "1 56025U 23042AR  26148.47803459  .00000198  00000+0  16719-4 0  9995", "line2": "2 56025  43.0027 314.9961 0001173 260.5248  99.5471 15.27576222175230"}, {"name": "STARLINK-5770", "line1": "1 56026U 23042AS  26148.48944359  .00002025  00000+0  83013-4 0  9994", "line2": "2 56026  42.9993 314.2374 0000521 272.2356  87.8436 15.27601063175231"}, {"name": "STARLINK-5777", "line1": "1 56027U 23042AT  26148.15737464  .00000743  00000+0  36528-4 0  9990", "line2": "2 56027  43.0036 316.0416 0001348 271.2482  88.8215 15.27583588175198"}, {"name": "STARLINK-5779", "line1": "1 56028U 23042AU  26148.44205561  .00000061  00000+0  11763-4 0  9998", "line2": "2 56028  43.0060 314.7325 0001953 273.5731  86.4897 15.27573669175238"}, {"name": "STARLINK-5774", "line1": "1 56029U 23042AV  26148.49330959  .00001879  00000+0  77777-4 0  9999", "line2": "2 56029  43.0045 314.2582 0001225 253.8381 106.2336 15.27578448175246"}, {"name": "STARLINK-5781", "line1": "1 56030U 23042AW  26148.44592626 -.00000501  00000+0 -86794-5 0  9990", "line2": "2 56030  43.0060 314.7584 0001821 274.7939  85.2704 15.27565821175230"}, {"name": "STARLINK-5785", "line1": "1 56031U 23042AX  26148.49972963  .00000132  00000+0  14320-4 0  9995", "line2": "2 56031  43.0043 314.3080 0001320 269.2117  90.8584 15.27576338175244"}, {"name": "STARLINK-5786", "line1": "1 56032U 23042AY  26148.52543823 -.00000038  00000+0  81710-5 0  9993", "line2": "2 56032  43.0054 314.4972 0001818 269.8694  90.1949 15.27569033175248"}, {"name": "STARLINK-5782", "line1": "1 56034U 23042BA  26148.46775529 -.00000478  00000+0 -78496-5 0  9994", "line2": "2 56034  43.0043 314.9159 0001538 262.4655  97.6022 15.27569047175233"}, {"name": "STARLINK-5792", "line1": "1 56035U 23042BB  26148.44976462 -.00000525  00000+0 -95404-5 0  9993", "line2": "2 56035  43.0051 314.7876 0001257 283.8797  76.1914 15.27578236175231"}, {"name": "STARLINK-5790", "line1": "1 56036U 23042BC  26148.52413992  .00000960  00000+0  44424-4 0  9993", "line2": "2 56036  43.0053 314.4702 0002249 270.7637  89.2957 15.27578321175247"}, {"name": "STARLINK-5758", "line1": "1 56037U 23042BD  26148.47081800 -.00000123  00000+0  50518-5 0  9991", "line2": "2 56037  43.0052 300.1865 0001636 271.6953  88.3711 15.27575920175407"}, {"name": "STARLINK-5793", "line1": "1 56038U 23042BE  26148.47546159  .00000658  00000+0  33438-4 0  9998", "line2": "2 56038  43.0024 314.9717 0001210 268.3386  91.7327 15.27578271175231"}, {"name": "STARLINK-5795", "line1": "1 56039U 23042BF  26148.42342142  .00000477  00000+0  26879-4 0  9990", "line2": "2 56039  43.0047 300.6867 0001662 273.0878  86.9783 15.27578549175392"}, {"name": "STARLINK-5798", "line1": "1 56040U 23042BG  26148.49266410 -.00000195  00000+0  24611-5 0  9993", "line2": "2 56040  43.0035 300.3391 0002140 274.4319  85.6289 15.27577263175408"}, {"name": "STARLINK-5800", "line1": "1 56041U 23042BH  26148.45875575  .00001136  00000+0  50824-4 0  9997", "line2": "2 56041  43.0003 303.4907 0001903 260.7795  99.2841 15.27579588175365"}, {"name": "STARLINK-6109", "line1": "1 56094U 23046B   26148.13394704  .00000982  00000+0  45218-4 0  9993", "line2": "2 56094  43.0045  72.7183 0001438 276.6034  83.4654 15.27575671174181"}, {"name": "STARLINK-6090", "line1": "1 56095U 23046C   26148.19161047  .00000439  00000+0  25486-4 0  9994", "line2": "2 56095  43.0057  72.2910 0001540 265.9119  94.1557 15.27575852174190"}, {"name": "STARLINK-6089", "line1": "1 56096U 23046D   26148.13778835  .00000713  00000+0  35450-4 0  9995", "line2": "2 56096  43.0036  72.7429 0001264 264.0264  96.0443 15.27576616174185"}, {"name": "STARLINK-6077", "line1": "1 56097U 23046E   26148.38345127  .00001122  00000+0  50307-4 0  9990", "line2": "2 56097  43.0062  24.2148 0001931 264.9015  95.1617 15.27579472174769"}, {"name": "STARLINK-6088", "line1": "1 56098U 23046F   26148.13007800  .00000326  00000+0  21360-4 0  9999", "line2": "2 56098  43.0050  72.6896 0001454 262.8015  97.2671 15.27579555174171"}, {"name": "STARLINK-6076", "line1": "1 56100U 23046H   26148.51339889  .00000637  00000+0  32662-4 0  9992", "line2": "2 56100  43.0034  70.4209 0001435 268.2141  91.8546 15.27578083174244"}, {"name": "STARLINK-6095", "line1": "1 56101U 23046J   26148.19031864  .00001475  00000+0  63112-4 0  9994", "line2": "2 56101  43.0046  72.2764 0001292 273.4956  86.5748 15.27582704174191"}, {"name": "STARLINK-6075", "line1": "1 56102U 23046K   26148.46728580  .00001814  00000+0  75411-4 0  9995", "line2": "2 56102  42.9998  70.9094 0000467 292.2907  67.7895 15.27580710174239"}, {"name": "STARLINK-6096", "line1": "1 56103U 23046L   26148.19803882  .00004786  00000+0  18333-3 0  9995", "line2": "2 56103  43.0047  72.3331 0001599 272.8479  87.2189 15.27581387174191"}, {"name": "STARLINK-6062", "line1": "1 56104U 23046M   26148.12879366  .00000651  00000+0  33169-4 0  9991", "line2": "2 56104  43.0058  72.6722 0001427 260.7459  99.3232 15.27589438174182"}, {"name": "STARLINK-6066", "line1": "1 56105U 23046N   26148.49170343  .00029539  00000+0  10783-2 0  9992", "line2": "2 56105  42.9981  71.0937 0000455 284.4695  75.6106 15.27590780174237"}, {"name": "STARLINK-6030", "line1": "1 56107U 23046Q   26148.49941095 -.00000027  00000+0  85617-5 0  9997", "line2": "2 56107  43.0062  71.1418 0001134 272.4989  87.5733 15.27575988174235"}, {"name": "STARLINK-6081", "line1": "1 56108U 23046R   26148.46986074  .00000059  00000+0  11672-4 0  9994", "line2": "2 56108  43.0003  70.9246 0000755 250.5803 109.4967 15.27578040174232"}, {"name": "STARLINK-6083", "line1": "1 56109U 23046S   26148.49555314  .00000502  00000+0  27760-4 0  9995", "line2": "2 56109  43.0078  71.1126 0001052 264.7341  95.3390 15.27576562174230"}, {"name": "STARLINK-6082", "line1": "1 56110U 23046T   26148.48913368  .00000250  00000+0  18621-4 0  9999", "line2": "2 56110  43.0030  71.0677 0000845 274.4390  85.6365 15.27575778174233"}, {"name": "STARLINK-6084", "line1": "1 56111U 23046U   26148.51097222  .00000158  00000+0  15295-4 0  9997", "line2": "2 56111  43.0075  71.2220 0001729 265.1869  94.8785 15.27578116174236"}, {"name": "STARLINK-6080", "line1": "1 56112U 23046V   26147.52229663 -.00000860  00000+0 -22384-4 0  9993", "line2": "2 56112  43.0050  76.7150 0001433 186.4104 173.6729 15.26742236174083"}, {"name": "STARLINK-6113", "line1": "1 56113U 23046W   26148.18774570 -.00003029  00000+0 -10058-3 0  9993", "line2": "2 56113  43.0064  72.2491 0001367 270.7312  89.3383 15.27586666174197"}, {"name": "STARLINK-6101", "line1": "1 56115U 23046Y   26148.49092709  .00007455  00000+0  28042-3 0  9993", "line2": "2 56115  43.0075  67.6707 0000940 278.5830  81.4916 15.27550703174273"}, {"name": "STARLINK-6114", "line1": "1 56116U 23046Z   26148.50711936  .00001432  00000+0  61564-4 0  9992", "line2": "2 56116  43.0045  71.2137 0001577 263.1214  96.9459 15.27581801174234"}, {"name": "STARLINK-6107", "line1": "1 56117U 23046AA  26148.42811122  .00000395  00000+0  23869-4 0  9995", "line2": "2 56117  43.0032  56.8006 0001287 266.6205  93.4500 15.27575312174397"}, {"name": "STARLINK-6091", "line1": "1 56119U 23046AC  26148.18069917  .00001484  00000+0  63463-4 0  9991", "line2": "2 56119  43.0030  58.3777 0001054 259.4412 100.6321 15.27575060174359"}, {"name": "STARLINK-6079", "line1": "1 56120U 23046AD  26148.43839521  .00000251  00000+0  18637-4 0  9991", "line2": "2 56120  43.0020  56.8706 0000328 244.3768 115.7049 15.27575578174397"}]